{"type": "FeatureCollection", "features": [ {"type": "Feature", "properties": {"norad_id": 29892, "name": "FENGYUN 1C DEB", "group": "fengyun-1c-debris", "lat": 55.92254664568003, "lon": 129.45586232338837, "alt_km": 889.4150095854093, "timestamp": "2025-12-21T05:44:51.857898+00:00", "meta": {"OBJECT_NAME": "FENGYUN 1C DEB", "OBJECT_ID": "1999-025GN", "EPOCH": "2025-12-20T21:40:37.159968", "MEAN_MOTION": 14.32330058, "ECCENTRICITY": 0.01921164, "INCLINATION": 99.1805, "RA_OF_ASC_NODE": 142.931, "ARG_OF_PERICENTER": 273.7541, "MEAN_ANOMALY": 209.0197, "EPHEMERIS_TYPE": 0, "CLASSIFICATION_TYPE": "U", "NORAD_CAT_ID": 29892, "ELEMENT_SET_NO": 999, "REV_AT_EPOCH": 96766, "BSTAR": 0.0021820222, "MEAN_MOTION_DOT": 7.18e-05, "MEAN_MOTION_DDOT": 0}, "tle": {"line1": "1 29892U 99025GN  25354.90320787  .00007180  00000+0  21820-2 0  9990", "line2": "2 29892  99.1805 142.9310 0192116 273.7541 209.0197 14.32330058967664"}}, "geometry": {"type": "Point", "coordinates": [129.45586232338837, 55.92254664568003]}}, {"type": "Feature", "properties": {"norad_id": 29893, "name": "FENGYUN 1C DEB", "group": "fengyun-1c-debris", "lat": 3.351999847496675, "lon": 89.98380271712443, "alt_km": 1043.6511267506658, "timestamp": "2025-12-21T05:44:51.857908+00:00", "meta": {"OBJECT_NAME": "FENGYUN 1C DEB", "OBJECT_ID": "1999-025GP", "EPOCH": "2025-12-20T18:10:04.533888", "MEAN_MOTION": 13.79464985, "ECCENTRICITY": 0.01739045, "INCLINATION": 98.5532, "RA_OF_ASC_NODE": 90.0527, "ARG_OF_PERICENTER": 131.8119, "MEAN_ANOMALY": 358.5095, "EPHEMERIS_TYPE": 0, "CLASSIFICATION_TYPE": "U", "NORAD_CAT_ID": 29893, "ELEMENT_SET_NO": 999, "REV_AT_EPOCH": 95250, "BSTAR": 0.0001477324, "MEAN_MOTION_DOT": 1.34e-06, "MEAN_MOTION_DDOT": 0}, "tle": {"line1": "1 29893U 99025GP  25354.75699692  .00000134  00000+0  14773-3 0  9990", "line2": "2 29893  98.5532  90.0527 0173904 131.8119 358.5095 13.79464985952508"}}, "geometry": {"type": "Point", "coordinates": [89.98380271712443, 3.351999847496675]}}, {"type": "Feature", "properties": {"norad_id": 29894, "name": "FENGYUN 1C DEB", "group": "fengyun-1c-debris", "lat": 77.5325323557824, "lon": 0.46979125092471086, "alt_km": 888.5573630146391, "timestamp": "2025-12-21T05:44:51.857918+00:00", "meta": {"OBJECT_NAME": "FENGYUN 1C DEB", "OBJECT_ID": "1999-025GQ", "EPOCH": "2025-12-20T20:55:32.428704", "MEAN_MOTION": 13.80981771, "ECCENTRICITY": 0.01681205, "INCLINATION": 99.4848, "RA_OF_ASC_NODE": 49.2221, "ARG_OF_PERICENTER": 23.5615, "MEAN_ANOMALY": 30.1877, "EPHEMERIS_TYPE": 0, "CLASSIFICATION_TYPE": "U", "NORAD_CAT_ID": 29894, "ELEMENT_SET_NO": 999, "REV_AT_EPOCH": 95189, "BSTAR": 0.00042929539, "MEAN_MOTION_DOT": 4.59e-06, "MEAN_MOTION_DDOT": 0}, "tle": {"line1": "1 29894U 99025GQ  25354.87190311  .00000459  00000+0  42930-3 0  9994", "line2": "2 29894  99.4848  49.2221 0168120  23.5615  30.1877 13.80981771951899"}}, "geometry": {"type": "Point", "coordinates": [0.46979125092471086, 77.5325323557824]}}, {"type": "Feature", "properties": {"norad_id": 29895, "name": "FENGYUN 1C DEB", "group": "fengyun-1c-debris", "lat": -64.73340386044343, "lon": 126.13482069153899, "alt_km": 677.590933847091, "timestamp": "2025-12-21T05:44:51.857929+00:00", "meta": {"OBJECT_NAME": "FENGYUN 1C DEB", "OBJECT_ID": "1999-025GR", "EPOCH": "2025-12-20T13:02:54.019392", "MEAN_MOTION": 14.08303171, "ECCENTRICITY": 0.0299609, "INCLINATION": 99.8852, "RA_OF_ASC_NODE": 103.6907, "ARG_OF_PERICENTER": 322.2979, "MEAN_ANOMALY": 46.8669, "EPHEMERIS_TYPE": 0, "CLASSIFICATION_TYPE": "U", "NORAD_CAT_ID": 29895, "ELEMENT_SET_NO": 999, "REV_AT_EPOCH": 95634, "BSTAR": 0.0013064, "MEAN_MOTION_DOT": 3.318e-05, "MEAN_MOTION_DDOT": 0}, "tle": {"line1": "1 29895U 99025GR  25354.54368078  .00003318  00000+0  13064-2 0  9998", "line2": "2 29895  99.8852 103.6907 0299609 322.2979  46.8669 14.08303171956345"}}, "geometry": {"type": "Point", "coordinates": [126.13482069153899, -64.73340386044343]}}, {"type": "Feature", "properties": {"norad_id": 29896, "name": "FENGYUN 1C DEB", "group": "fengyun-1c-debris", "lat": 45.97180889043538, "lon": 76.6239168334874, "alt_km": 902.7994448156487, "timestamp": "2025-12-21T05:44:51.857938+00:00", "meta": {"OBJECT_NAME": "FENGYUN 1C DEB", "OBJECT_ID": "1999-025GS", "EPOCH": "2025-12-20T06:50:06.687168", "MEAN_MOTION": 13.65376524, "ECCENTRICITY": 0.0240006, "INCLINATION": 99.4225, "RA_OF_ASC_NODE": 245.8044, "ARG_OF_PERICENTER": 82.5151, "MEAN_ANOMALY": 38.2646, "EPHEMERIS_TYPE": 0, "CLASSIFICATION_TYPE": "U", "NORAD_CAT_ID": 29896, "ELEMENT_SET_NO": 999, "REV_AT_EPOCH": 94145, "BSTAR": 0.0005830404, "MEAN_MOTION_DOT": 5.37e-06, "MEAN_MOTION_DDOT": 0}, "tle": {"line1": "1 29896U 99025GS  25354.28479962  .00000537  00000+0  58304-3 0  9992", "line2": "2 29896  99.4225 245.8044 0240006  82.5151  38.2646 13.65376524941452"}}, "geometry": {"type": "Point", "coordinates": [76.6239168334874, 45.97180889043538]}}, {"type": "Feature", "properties": {"norad_id": 29897, "name": "FENGYUN 1C DEB", "group": "fengyun-1c-debris", "lat": 16.980662562569343, "lon": 41.14110922791514, "alt_km": 890.3274325518132, "timestamp": "2025-12-21T05:44:51.857949+00:00", "meta": {"OBJECT_NAME": "FENGYUN 1C DEB", "OBJECT_ID": "1999-025GT", "EPOCH": "2025-12-20T14:56:24.791424", "MEAN_MOTION": 13.57210947, "ECCENTRICITY": 0.0296847, "INCLINATION": 98.6295, "RA_OF_ASC_NODE": 217.941, "ARG_OF_PERICENTER": 118.1177, "MEAN_ANOMALY": 269.2408, "EPHEMERIS_TYPE": 0, "CLASSIFICATION_TYPE": "U", "NORAD_CAT_ID": 29897, "ELEMENT_SET_NO": 999, "REV_AT_EPOCH": 93047, "BSTAR": 0.001665, "MEAN_MOTION_DOT": 1.547e-05, "MEAN_MOTION_DDOT": 0}, "tle": {"line1": "1 29897U 99025GT  25354.62250916  .00001547  00000+0  16650-2 0  9996", "line2": "2 29897  98.6295 217.9410 0296847 118.1177 269.2408 13.57210947930475"}}, "geometry": {"type": "Point", "coordinates": [41.14110922791514, 16.980662562569343]}}, {"type": "Feature", "properties": {"norad_id": 29898, "name": "FENGYUN 1C DEB", "group": "fengyun-1c-debris", "lat": -69.8029579440887, "lon": 143.24253533922663, "alt_km": 965.4503180694892, "timestamp": "2025-12-21T05:44:51.857959+00:00", "meta": {"OBJECT_NAME": "FENGYUN 1C DEB", "OBJECT_ID": "1999-025GU", "EPOCH": "2025-12-19T23:03:21.218400", "MEAN_MOTION": 13.70346291, "ECCENTRICITY": 0.0427077, "INCLINATION": 98.2224, "RA_OF_ASC_NODE": 345.2888, "ARG_OF_PERICENTER": 169.7795, "MEAN_ANOMALY": 251.4789, "EPHEMERIS_TYPE": 0, "CLASSIFICATION_TYPE": "U", "NORAD_CAT_ID": 29898, "ELEMENT_SET_NO": 999, "REV_AT_EPOCH": 93260, "BSTAR": 0.0011852, "MEAN_MOTION_DOT": 1.965e-05, "MEAN_MOTION_DDOT": 0}, "tle": {"line1": "1 29898U 99025GU  25353.96066225  .00001965  00000+0  11852-2 0  9994", "line2": "2 29898  98.2224 345.2888 0427077 169.7795 251.4789 13.70346291932606"}}, "geometry": {"type": "Point", "coordinates": [143.24253533922663, -69.8029579440887]}}, {"type": "Feature", "properties": {"norad_id": 29899, "name": "FENGYUN 1C DEB", "group": "fengyun-1c-debris", "lat": 4.918313578412632, "lon": 148.75585284204732, "alt_km": 953.8552971822555, "timestamp": "2025-12-21T05:44:51.857969+00:00", "meta": {"OBJECT_NAME": "FENGYUN 1C DEB", "OBJECT_ID": "1999-025GV", "EPOCH": "2025-12-19T16:01:21.320832", "MEAN_MOTION": 13.37494433, "ECCENTRICITY": 0.0353484, "INCLINATION": 98.6619, "RA_OF_ASC_NODE": 148.1661, "ARG_OF_PERICENTER": 61.6, "MEAN_ANOMALY": 302.0286, "EPHEMERIS_TYPE": 0, "CLASSIFICATION_TYPE": "U", "NORAD_CAT_ID": 29899, "ELEMENT_SET_NO": 999, "REV_AT_EPOCH": 92177, "BSTAR": 0.00015479, "MEAN_MOTION_DOT": 8.4e-07, "MEAN_MOTION_DDOT": 0}, "tle": {"line1": "1 29899U 99025GV  25353.66760788  .00000084  00000+0  15479-3 0  9998", "line2": "2 29899  98.6619 148.1661 0353484  61.6000 302.0286 13.37494433921773"}}, "geometry": {"type": "Point", "coordinates": [148.75585284204732, 4.918313578412632]}}, {"type": "Feature", "properties": {"norad_id": 29901, "name": "FENGYUN 1C DEB", "group": "fengyun-1c-debris", "lat": 67.8082385826158, "lon": 142.67518642589576, "alt_km": 1402.9227651471328, "timestamp": "2025-12-21T05:44:51.857979+00:00", "meta": {"OBJECT_NAME": "FENGYUN 1C DEB", "OBJECT_ID": "1999-025GX", "EPOCH": "2025-12-20T17:05:50.180640", "MEAN_MOTION": 13.33258136, "ECCENTRICITY": 0.03791781, "INCLINATION": 98.7447, "RA_OF_ASC_NODE": 164.3909, "ARG_OF_PERICENTER": 265.4174, "MEAN_ANOMALY": 154.3836, "EPHEMERIS_TYPE": 0, "CLASSIFICATION_TYPE": "U", "NORAD_CAT_ID": 29901, "ELEMENT_SET_NO": 999, "REV_AT_EPOCH": 92025, "BSTAR": 0.00032061637, "MEAN_MOTION_DOT": 1.98e-06, "MEAN_MOTION_DDOT": 0}, "tle": {"line1": "1 29901U 99025GX  25354.71238635  .00000198  00000+0  32062-3 0  9993", "line2": "2 29901  98.7447 164.3909 0379178 265.4174 154.3836 13.33258136920251"}}, "geometry": {"type": "Point", "coordinates": [142.67518642589576, 67.8082385826158]}}, {"type": "Feature", "properties": {"norad_id": 29904, "name": "FENGYUN 1C DEB", "group": "fengyun-1c-debris", "lat": 77.90106720427832, "lon": -14.312577077233954, "alt_km": 861.658740401952, "timestamp": "2025-12-21T05:44:51.857989+00:00", "meta": {"OBJECT_NAME": "FENGYUN 1C DEB", "OBJECT_ID": "1999-025HA", "EPOCH": "2025-12-20T21:03:13.129920", "MEAN_MOTION": 14.44507823, "ECCENTRICITY": 0.02075006, "INCLINATION": 99.0408, "RA_OF_ASC_NODE": 33.2687, "ARG_OF_PERICENTER": 294.3948, "MEAN_ANOMALY": 63.5712, "EPHEMERIS_TYPE": 0, "CLASSIFICATION_TYPE": "U", "NORAD_CAT_ID": 29904, "ELEMENT_SET_NO": 999, "REV_AT_EPOCH": 99181, "BSTAR": 0.00030073802, "MEAN_MOTION_DOT": 1.289e-05, "MEAN_MOTION_DDOT": 0}, "tle": {"line1": "1 29904U 99025HA  25354.87723530  .00001289  00000+0  30074-3 0  9999", "line2": "2 29904  99.0408  33.2687 0207500 294.3948  63.5712 14.44507823991818"}}, "geometry": {"type": "Point", "coordinates": [-14.312577077233954, 77.90106720427832]}}]}